[{"OBJECT_NAME":"HULIANWANG DIGUI-113","OBJECT_ID":"2025-285J","EPOCH":"2026-03-07T03:59:03.214752","MEAN_MOTION":13.29330249,"ECCENTRICITY":8.4e-6,"INCLINATION":50.0098,"RA_OF_ASC_NODE":151.5661,"ARG_OF_PERICENTER":309.5038,"MEAN_ANOMALY":50.5827,"EPHEMERIS_TYPE":0,"CLASSIFICATION_TYPE":"U","NORAD_CAT_ID":66923,"ELEMENT_SET_NO":999,"REV_AT_EPOCH":1249,"BSTAR":-0.00024765,"MEAN_MOTION_DOT":-2.39e-6,"MEAN_MOTION_DDOT":0},{"OBJECT_NAME":"HULIANWANG DIGUI-114","OBJECT_ID":"2025-287A","EPOCH":"2026-03-07T03:38:50.042976","MEAN_MOTION":13.24415856,"ECCENTRICITY":0.000197,"INCLINATION":86.497,"RA_OF_ASC_NODE":316.8676,"ARG_OF_PERICENTER":80.2275,"MEAN_ANOMALY":279.9081,"EPHEMERIS_TYPE":0,"CLASSIFICATION_TYPE":"U","NORAD_CAT_ID":66953,"ELEMENT_SET_NO":999,"REV_AT_EPOCH":1183,"BSTAR":8.566e-5,"MEAN_MOTION_DOT":5.1e-7,"MEAN_MOTION_DDOT":0},{"OBJECT_NAME":"HULIANWANG DIGUI-115","OBJECT_ID":"2025-287B","EPOCH":"2026-03-07T03:27:55.800576","MEAN_MOTION":13.24415989,"ECCENTRICITY":0.000205,"INCLINATION":86.4986,"RA_OF_ASC_NODE":316.8794,"ARG_OF_PERICENTER":79.1608,"MEAN_ANOMALY":280.9757,"EPHEMERIS_TYPE":0,"CLASSIFICATION_TYPE":"U","NORAD_CAT_ID":66954,"ELEMENT_SET_NO":999,"REV_AT_EPOCH":1183,"BSTAR":8.8863e-5,"MEAN_MOTION_DOT":5.3e-7,"MEAN_MOTION_DDOT":0},{"OBJECT_NAME":"HULIANWANG DIGUI-116","OBJECT_ID":"2025-287C","EPOCH":"2026-03-07T03:17:03.744096","MEAN_MOTION":13.24416086,"ECCENTRICITY":0.0002048,"INCLINATION":86.4926,"RA_OF_ASC_NODE":316.8174,"ARG_OF_PERICENTER":78.9506,"MEAN_ANOMALY":281.1858,"EPHEMERIS_TYPE":0,"CLASSIFICATION_TYPE":"U","NORAD_CAT_ID":66955,"ELEMENT_SET_NO":999,"REV_AT_EPOCH":1183,"BSTAR":7.607e-5,"MEAN_MOTION_DOT":4.7e-7,"MEAN_MOTION_DDOT":0},{"OBJECT_NAME":"HULIANWANG DIGUI-117","OBJECT_ID":"2025-287D","EPOCH":"2026-03-07T03:06:14.670144","MEAN_MOTION":13.24414207,"ECCENTRICITY":0.0001148,"INCLINATION":86.4987,"RA_OF_ASC_NODE":316.8727,"ARG_OF_PERICENTER":19.7825,"MEAN_ANOMALY":340.3353,"EPHEMERIS_TYPE":0,"CLASSIFICATION_TYPE":"U","NORAD_CAT_ID":66956,"ELEMENT_SET_NO":999,"REV_AT_EPOCH":1183,"BSTAR":8.246e-5,"MEAN_MOTION_DOT":5.0e-7,"MEAN_MOTION_DDOT":0},{"OBJECT_NAME":"HULIANWANG DIGUI-118","OBJECT_ID":"2025-287E","EPOCH":"2026-03-07T02:55:20.395776","MEAN_MOTION":13.2441557,"ECCENTRICITY":0.0002037,"INCLINATION":86.4963,"RA_OF_ASC_NODE":316.8462,"ARG_OF_PERICENTER":78.8107,"MEAN_ANOMALY":281.3256,"EPHEMERIS_TYPE":0,"CLASSIFICATION_TYPE":"U","NORAD_CAT_ID":66957,"ELEMENT_SET_NO":999,"REV_AT_EPOCH":1183,"BSTAR":0.00014189,"MEAN_MOTION_DOT":7.6e-7,"MEAN_MOTION_DDOT":0},{"OBJECT_NAME":"HULIANWANG DIGUI-119","OBJECT_ID":"2025-295A","EPOCH":"2026-03-06T22:13:42.951648","MEAN_MOTION":13.46538062,"ECCENTRICITY":0.0001166,"INCLINATION":49.9835,"RA_OF_ASC_NODE":33.2787,"ARG_OF_PERICENTER":148.3017,"MEAN_ANOMALY":211.7933,"EPHEMERIS_TYPE":0,"CLASSIFICATION_TYPE":"U","NORAD_CAT_ID":67059,"ELEMENT_SET_NO":999,"REV_AT_EPOCH":1188,"BSTAR":9.562e-5,"MEAN_MOTION_DOT":-7.2e-7,"MEAN_MOTION_DDOT":0},{"OBJECT_NAME":"HULIANWANG DIGUI-120","OBJECT_ID":"2025-295B","EPOCH":"2026-03-06T21:53:47.753664","MEAN_MOTION":13.46886837,"ECCENTRICITY":6.9e-5,"INCLINATION":50.0312,"RA_OF_ASC_NODE":33.2379,"ARG_OF_PERICENTER":259.7821,"MEAN_ANOMALY":100.2981,"EPHEMERIS_TYPE":0,"CLASSIFICATION_TYPE":"U","NORAD_CAT_ID":67060,"ELEMENT_SET_NO":999,"REV_AT_EPOCH":1188,"BSTAR":9.4983e-5,"MEAN_MOTION_DOT":-7.2e-7,"MEAN_MOTION_DDOT":0},{"OBJECT_NAME":"HULIANWANG DIGUI-121","OBJECT_ID":"2025-295C","EPOCH":"2026-03-06T20:17:24.916128","MEAN_MOTION":13.46944278,"ECCENTRICITY":9.1e-6,"INCLINATION":49.9987,"RA_OF_ASC_NODE":33.5098,"ARG_OF_PERICENTER":40.7039,"MEAN_ANOMALY":319.3847,"EPHEMERIS_TYPE":0,"CLASSIFICATION_TYPE":"U","NORAD_CAT_ID":67061,"ELEMENT_SET_NO":999,"REV_AT_EPOCH":1187,"BSTAR":9.7629e-5,"MEAN_MOTION_DOT":-7.1e-7,"MEAN_MOTION_DDOT":0},{"OBJECT_NAME":"HULIANWANG DIGUI-122","OBJECT_ID":"2025-295D","EPOCH":"2026-03-06T23:30:20.458944","MEAN_MOTION":13.46845853,"ECCENTRICITY":7.55e-5,"INCLINATION":50.009,"RA_OF_ASC_NODE":32.911,"ARG_OF_PERICENTER":331.868,"MEAN_ANOMALY":28.2159,"EPHEMERIS_TYPE":0,"CLASSIFICATION_TYPE":"U","NORAD_CAT_ID":67062,"ELEMENT_SET_NO":999,"REV_AT_EPOCH":1189,"BSTAR":9.2417e-5,"MEAN_MOTION_DOT":-7.4e-7,"MEAN_MOTION_DDOT":0},{"OBJECT_NAME":"HULIANWANG DIGUI-123","OBJECT_ID":"2025-295E","EPOCH":"2026-03-06T21:33:11.229696","MEAN_MOTION":13.46994361,"ECCENTRICITY":6.46e-5,"INCLINATION":50.0059,"RA_OF_ASC_NODE":33.1502,"ARG_OF_PERICENTER":346.599,"MEAN_ANOMALY":13.4873,"EPHEMERIS_TYPE":0,"CLASSIFICATION_TYPE":"U","NORAD_CAT_ID":67063,"ELEMENT_SET_NO":999,"REV_AT_EPOCH":1188,"BSTAR":0.00012325,"MEAN_MOTION_DOT":-5.5e-7,"MEAN_MOTION_DDOT":0},{"OBJECT_NAME":"HULIANWANG DIGUI-124","OBJECT_ID":"2025-295F","EPOCH":"2026-03-06T23:10:37.030368","MEAN_MOTION":13.47115276,"ECCENTRICITY":8.94e-5,"INCLINATION":50.0029,"RA_OF_ASC_NODE":32.7983,"ARG_OF_PERICENTER":27.3896,"MEAN_ANOMALY":332.7031,"EPHEMERIS_TYPE":0,"CLASSIFICATION_TYPE":"U","NORAD_CAT_ID":67064,"ELEMENT_SET_NO":999,"REV_AT_EPOCH":1189,"BSTAR":9.6709e-5,"MEAN_MOTION_DOT":-7.1e-7,"MEAN_MOTION_DDOT":0},{"OBJECT_NAME":"HULIANWANG DIGUI-125","OBJECT_ID":"2025-295G","EPOCH":"2026-03-06T23:00:51.509664","MEAN_MOTION":13.47592614,"ECCENTRICITY":0.0001517,"INCLINATION":49.9992,"RA_OF_ASC_NODE":32.7597,"ARG_OF_PERICENTER":20.3092,"MEAN_ANOMALY":339.7849,"EPHEMERIS_TYPE":0,"CLASSIFICATION_TYPE":"U","NORAD_CAT_ID":67065,"ELEMENT_SET_NO":999,"REV_AT_EPOCH":1189,"BSTAR":9.8578e-5,"MEAN_MOTION_DOT":-7.0e-7,"MEAN_MOTION_DDOT":0},{"OBJECT_NAME":"HULIANWANG DIGUI-126","OBJECT_ID":"2025-295H","EPOCH":"2026-03-06T22:50:29.675040","MEAN_MOTION":13.47239101,"ECCENTRICITY":0.0001183,"INCLINATION":50.002,"RA_OF_ASC_NODE":32.7159,"ARG_OF_PERICENTER":91.7957,"MEAN_ANOMALY":268.3058,"EPHEMERIS_TYPE":0,"CLASSIFICATION_TYPE":"U","NORAD_CAT_ID":67066,"ELEMENT_SET_NO":999,"REV_AT_EPOCH":1189,"BSTAR":6.7537e-5,"MEAN_MOTION_DOT":-8.9e-7,"MEAN_MOTION_DDOT":0},{"OBJECT_NAME":"HULIANWANG DIGUI-127","OBJECT_ID":"2025-295J","EPOCH":"2026-03-06T19:02:03.997248","MEAN_MOTION":13.47465042,"ECCENTRICITY":9.39e-5,"INCLINATION":50.0031,"RA_OF_ASC_NODE":33.2352,"ARG_OF_PERICENTER":9.6913,"MEAN_ANOMALY":350.3985,"EPHEMERIS_TYPE":0,"CLASSIFICATION_TYPE":"U","NORAD_CAT_ID":67067,"ELEMENT_SET_NO":999,"REV_AT_EPOCH":1187,"BSTAR":-0.0002791,"MEAN_MOTION_DOT":-3.02e-6,"MEAN_MOTION_DDOT":0},{"OBJECT_NAME":"HULIANWANG DIGUI-128","OBJECT_ID":"2025-311A","EPOCH":"2026-03-07T04:04:02.169120","MEAN_MOTION":13.31089696,"ECCENTRICITY":0.0001057,"INCLINATION":50.0058,"RA_OF_ASC_NODE":121.4091,"ARG_OF_PERICENTER":109.6244,"MEAN_ANOMALY":250.4743,"EPHEMERIS_TYPE":0,"CLASSIFICATION_TYPE":"U","NORAD_CAT_ID":67236,"ELEMENT_SET_NO":999,"REV_AT_EPOCH":977,"BSTAR":0.00012684,"MEAN_MOTION_DOT":-6.4e-7,"MEAN_MOTION_DDOT":0}]
